NORAD_CAT_ID,OBJECT_NAME,OBJECT_TYPE,EPOCH,MEAN_MOTION,ECCENTRICITY,INCLINATION,RA_OF_ASC_NODE,ARG_OF_PERICENTER,MEAN_ANOMALY,BSTAR,MEAN_MOTION_DOT,MEAN_MOTION_DDOT,TLE_LINE0,TLE_LINE1,TLE_LINE2,SEMIMAJOR_AXIS,PERIOD,APOGEE,PERIGEE,DECAYED
53924.0,STARLINK-5001,PAYLOAD,2022-12-07 14:00:01,15.70213576,0.000565,53.2174,248.6408,270.1197,231.6608,-0.010355,-0.01143292,0.0,0 STARLINK-5001,1 53924U 22119AQ  22341.58334491 -.01143292  00000-0 -10355-1 0  9996,2 53924  53.2174 248.6408 0005650 270.1197 231.6608 15.70213576 12020,6736.4230000000025,91.707,362.094,354.482,0.0
53924.0,STARLINK-5001,PAYLOAD,2022-12-07 22:00:00,15.69382776,0.0001418,53.2169,247.0032,279.3065,307.3037,-0.010427,-0.01112847,0.0,0 STARLINK-5001,1 53924U 22119AQ  22341.91667824 -.01112847  00000-0 -10427-1 0  9994,2 53924  53.2169 247.0032 0001418 279.3065 307.3037 15.69382776 12072,6738.8,91.756,361.621,359.71,0.0
53924.0,STARLINK-5001,PAYLOAD,2022-12-08 00:00:00,15.69176584,9.33e-05,53.2171,246.5921,291.1383,46.5272,-0.010459,-0.01107159,0.0,0 STARLINK-5001,1 53924U 22119AQ  22342.00001157 -.01107159  00000-0 -10459-1 0  9991,2 53924  53.2171 246.5921 0000933 291.1383  46.5272 15.69176584  1307,6739.391,91.768,361.884,360.627,0.0
53924.0,STARLINK-5001,PAYLOAD,2022-12-08 14:00:01,15.67804133,0.0001125,53.2167,243.7247,60.9546,332.3525,-0.011862,-0.01197714,0.0,0 STARLINK-5001,1 53924U 22119AQ  22342.58334491 -.01197714  00000-0 -11862-1 0  9999,2 53924  53.2167 243.7247 0001125  60.9546 332.3525 15.67804133  1302,6743.323,91.848,365.947,364.43,0.0
53924.0,STARLINK-5001,PAYLOAD,2022-12-08 22:00:01,15.66944901,0.0001291,53.2175,242.0888,56.8565,58.4312,-0.011588,-0.0113592,0.0,0 STARLINK-5001,1 53924U 22119AQ  22342.91668981 -.01135920  00000-0 -11588-1 0  9996,2 53924  53.2175 242.0888 0001291  56.8565  58.4312 15.66944901  1300,6745.788000000001,91.899,368.524,366.782,0.0
53924.0,STARLINK-5001,PAYLOAD,2022-12-09 14:00:01,15.65316042,0.0001041,53.2171,238.8234,81.3939,194.6811,-0.012345,-0.01132977,0.0,0 STARLINK-5001,1 53924U 22119AQ  22343.58334491 -.01132977  00000-0 -12345-1 0  9997,2 53924  53.2171 238.8234 0001041  81.3939 194.6811 15.65316042  1300,6750.467,91.994,373.035,371.629,0.0
53924.0,STARLINK-5001,PAYLOAD,2022-12-10 00:00:00,15.64304086,0.000115,53.217,236.7888,88.4069,16.2109,-0.012951,-0.01140581,0.0,0 STARLINK-5001,1 53924U 22119AQ  22344.00001157 -.01140581  00000-0 -12951-1 0  9998,2 53924  53.2170 236.7888 0001150  88.4069  16.2109 15.64304086 12400,6753.378000000002,92.054,376.02,374.466,0.0
53924.0,STARLINK-5001,PAYLOAD,2022-12-10 14:00:01,15.62876889,0.0001184,53.2174,233.9406,96.6409,53.3773,-0.01364,-0.01135627,0.0,0 STARLINK-5001,1 53924U 22119AQ  22344.58334491 -.01135627  00000-0 -13640-1 0  9992,2 53924  53.2174 233.9406 0001184  96.6409  53.3773 15.62876889  1304,6757.489000000001,92.138,380.154,378.554,0.0
53924.0,STARLINK-5001,PAYLOAD,2022-12-10 22:00:00,15.62060727,0.0001274,53.2176,232.3189,71.2516,154.792,-0.014024,-0.01131211,0.0,0 STARLINK-5001,1 53924U 22119AQ  22344.91667824 -.01131211  00000-0 -14024-1 0  9990,2 53924  53.2176 232.3189 0001274  71.2516 154.7920 15.62060727 12549,6759.842,92.186,382.569,380.846,0.0
53924.0,STARLINK-5001,PAYLOAD,2022-12-11 00:00:00,15.61860678,0.0001066,53.2175,231.9137,81.0806,253.8149,-0.014212,-0.01136775,0.0,0 STARLINK-5001,1 53924U 22119AQ  22345.00001157 -.01136775  00000-0 -14212-1 0  9991,2 53924  53.2175 231.9137 0001066  81.0806 253.8149 15.61860678  1304,6760.42,92.198,383.005,381.564,0.0
53924.0,STARLINK-5001,PAYLOAD,2022-12-11 14:00:01,15.60433224,0.0001008,53.2173,229.0762,102.4696,272.6926,-0.0149449999999999,-0.01131381,0.0,0 STARLINK-5001,1 53924U 22119AQ  22345.58334491 -.01131381  00000-0 -14945-1 0  9995,2 53924  53.2173 229.0762 0001008 102.4696 272.6926 15.60433224 12648,6764.542,92.282,387.089,385.725,0.0
53924.0,STARLINK-5001,PAYLOAD,2022-12-11 22:00:01,15.5962191,0.0001178,53.2173,227.4605,70.0209,18.2961,-0.015464,-0.01134376,0.0,0 STARLINK-5001,1 53924U 22119AQ  22345.91668981 -.01134376  00000-0 -15464-1 0  9990,2 53924  53.2173 227.4605 0001178  70.0209  18.2961 15.59621910  1307,6766.887,92.33,389.55,387.955,0.0
53924.0,STARLINK-5001,PAYLOAD,2022-12-12 06:00:00,15.58808445,0.0001315999999999,53.2172,225.845,62.6073,97.7587,-0.015955,-0.01134531,0.0,0 STARLINK-5001,1 53924U 22119AQ  22346.25001157 -.01134531  00000-0 -15955-1 0  9992,2 53924  53.2172 225.8450 0001316  62.6073  97.7587 15.58808445 12752,6769.241,92.378,391.997,390.216,0.0
53924.0,STARLINK-5001,PAYLOAD,2022-12-12 14:00:01,15.57993495,0.0001217,53.2172,224.2296,86.6879,144.8158,-0.016427,-0.01132599,0.0,0 STARLINK-5001,1 53924U 22119AQ  22346.58334491 -.01132599  00000-0 -16427-1 0  9995,2 53924  53.2172 224.2296 0001217  86.6879 144.8158 15.57993495  1309,6771.602,92.427,394.291,392.643,0.0
53924.0,STARLINK-5001,PAYLOAD,2022-12-12 22:00:00,15.57179172,0.0001171,53.2174,222.6199,71.6497,230.0113,-0.016916,-0.01131101,0.0,0 STARLINK-5001,1 53924U 22119AQ  22346.91667824 -.01131101  00000-0 -16916-1 0  9992,2 53924  53.2174 222.6199 0001171  71.6497 230.0113 15.57179172  1301,6773.962,92.475,396.621,395.034,0.0
53924.0,STARLINK-5001,PAYLOAD,2022-12-13 06:00:00,15.56366881,9.940000000000004e-05,53.2173,221.01,96.9883,273.8533,-0.017465,-0.01132509,0.0,0 STARLINK-5001,1 53924U 22119AQ  22347.25001157 -.01132509  00000-0 -17465-1 0  9994,2 53924  53.2173 221.0100 0000994  96.9883 273.8533 15.56366881 12910,6776.319,92.523,398.858,397.511,0.0
53924.0,STARLINK-5001,PAYLOAD,2022-12-13 14:00:01,15.55551771,0.0001174,53.2175,219.4007,66.0859,12.9596,-0.017983,-0.01131342,0.0,0 STARLINK-5001,1 53924U 22119AQ  22347.58334491 -.01131342  00000-0 -17983-1 0  9999,2 53924  53.2175 219.4007 0001174  66.0859  12.9596 15.55551771  1306,6778.686,92.572,401.347,399.755,0.0
53924.0,STARLINK-5001,PAYLOAD,2022-12-13 22:00:00,15.54738229,0.0001333,53.2174,217.7969,66.842,79.42699999999998,-0.018524,-0.01130847,0.0,0 STARLINK-5001,1 53924U 22119AQ  22347.91667824 -.01130847  00000-0 -18524-1 0  9996,2 53924  53.2174 217.7969 0001333  66.8420  79.4270 15.54738229 13014,6781.051,92.62,403.82,402.012,0.0
53924.0,STARLINK-5001,PAYLOAD,2022-12-14 14:00:01,15.53112942,0.0001157,53.2165,214.5903,77.3368,200.4475,-0.019711,-0.01133239,0.0,0 STARLINK-5001,1 53924U 22119AQ  22348.58334491 -.01133239  00000-0 -19711-1 0  9998,2 53924  53.2165 214.5903 0001157  77.3368 200.4475 15.53112942 13110,6785.781,92.717,408.431,406.861,0.0
53924.0,STARLINK-5001,PAYLOAD,2022-12-14 22:00:00,15.52296965,0.0001153,53.2165,212.9921,101.7644,240.3115,-0.020254,-0.0113065,0.0,0 STARLINK-5001,1 53924U 22119AQ  22348.91667824 -.01130650  00000-0 -20254-1 0  9992,2 53924  53.2165 212.9921 0001153 101.7644 240.3115 15.52296965  1306,6788.158,92.766,410.806,409.241,0.0
53924.0,STARLINK-5001,PAYLOAD,2022-12-15 14:00:01,15.50535994,0.0001318,53.2174,209.7958,83.1984,24.5485,-0.013126,-0.00698376,0.0,0 STARLINK-5001,1 53924U 22119AQ  22349.58334491 -.00698376  00000-0 -13126-1 0  9990,2 53924  53.2174 209.7958 0001318  83.1984  24.5485 15.50535994 13270,6793.297,92.871,416.057,414.267,0.0
53924.0,STARLINK-5001,PAYLOAD,2022-12-15 22:00:00,15.49903857,0.0001344,53.2173,208.2038,77.8767,91.2767,-0.00055272,-0.00031715,0.0,0 STARLINK-5001,1 53924U 22119AQ  22349.91667824 -.00031715  00000-0 -55272-3 0  9994,2 53924  53.2173 208.2038 0001344  77.8767  91.2767 15.49903857 13325,6795.144,92.909,417.922,416.096,0.0
53924.0,STARLINK-5001,PAYLOAD,2022-12-16 14:00:01,15.49879121,0.0001115,53.2131,205.0203,83.8647,206.9461,0.00085939,0.00048617,0.0,0 STARLINK-5001,1 53924U 22119AQ  22350.58334491  .00048617  00000-0  85939-3 0  9990,2 53924  53.2131 205.0203 0001115  83.8647 206.9461 15.49879121 13421,6795.215999999999,92.91,417.839,416.324,0.0
53924.0,STARLINK-5001,PAYLOAD,2022-12-16 22:00:00,15.49894445,0.0001261,53.2149,203.4279,70.6651,281.0765,0.00069231,0.0003905,0.0,0 STARLINK-5001,1 53924U 22119AQ  22350.91667824  .00039050  00000-0  69231-3 0  9994,2 53924  53.2149 203.4279 0001261  70.6651 281.0765 15.49894445  1307,6795.172,92.91,417.893,416.18,0.0
53924.0,STARLINK-5001,PAYLOAD,2022-12-17 06:00:00,15.50231064,0.0001262999999999,53.216,201.8324,55.9243,356.7127,-0.021008,-0.01092617,0.0,0 STARLINK-5001,1 53924U 22119AQ  22351.25001157 -.01092617  00000-0 -21008-1 0  9992,2 53924  53.2160 201.8324 0001263  55.9243 356.7127 15.50231064 13532,6794.188,92.889,416.911,415.195,0.0
53924.0,STARLINK-5001,PAYLOAD,2022-12-17 14:00:01,15.49438115,0.0001114,53.2136,200.2412,52.9578,60.6287,-0.022765,-0.0116237,0.0,0 STARLINK-5001,1 53924U 22119AQ  22351.58335648 -.01162370  00000-0 -22765-1 0  9998,2 53924  53.2136 200.2412 0001114  52.9578  60.6287 15.49438115  1303,6796.505999999999,92.937,419.128,417.614,0.0
53924.0,STARLINK-5001,PAYLOAD,2022-12-17 22:00:00,15.48589979,0.0001246,53.2132,198.6521,72.1797,101.2152,-0.022399,-0.01098398,0.0,0 STARLINK-5001,1 53924U 22119AQ  22351.91667824 -.01098398  00000-0 -22399-1 0  9990,2 53924  53.2132 198.6521 0001246  72.1797 101.2152 15.48589979  1300,6798.986999999999,92.988,421.699,420.005,0.0
53924.0,STARLINK-5001,PAYLOAD,2022-12-18 14:00:01,15.46997729,0.0001184,53.2133,195.4742,105.061,185.1067,-0.024751,-0.01160038,0.0,0 STARLINK-5001,1 53924U 22119AQ  22352.58334491 -.01160038  00000-0 -24751-1 0  9990,2 53924  53.2133 195.4742 0001184 105.0610 185.1067 15.46997729 13732,6803.651,93.084,426.322,424.711,0.0
53924.0,STARLINK-5001,PAYLOAD,2022-12-18 22:00:00,15.46146052,0.0001071,53.2131,193.8909,86.1299,260.9813,-0.024219,-0.01106683,0.0,0 STARLINK-5001,1 53924U 22119AQ  22352.91667824 -.01106683  00000-0 -24219-1 0  9991,2 53924  53.2131 193.8909 0001071  86.1299 260.9813 15.46146052  1300,6806.15,93.135,428.744,427.286,0.0
